[{"OBJECT_NAME":"ONEWEB-0323","OBJECT_ID":"2021-075AH","EPOCH":"2026-03-09T20:32:58.303968","MEAN_MOTION":13.12442331,"ECCENTRICITY":0.00017294,"INCLINATION":87.9005,"RA_OF_ASC_NODE":10.3615,"ARG_OF_PERICENTER":56.5546,"MEAN_ANOMALY":303.5748,"EPHEMERIS_TYPE":0,"CLASSIFICATION_TYPE":"U","NORAD_CAT_ID":49106,"ELEMENT_SET_NO":999,"REV_AT_EPOCH":22152,"BSTAR":-0.00083418907,"MEAN_MOTION_DOT":-2.87e-6,"MEAN_MOTION_DDOT":0},{"OBJECT_NAME":"SL-14 R\/B","OBJECT_ID":"1991-030B","EPOCH":"2026-03-09T23:08:52.984896","MEAN_MOTION":13.16387207,"ECCENTRICITY":0.00179224,"INCLINATION":82.5424,"RA_OF_ASC_NODE":263.3451,"ARG_OF_PERICENTER":73.7708,"MEAN_ANOMALY":36.9534,"EPHEMERIS_TYPE":0,"CLASSIFICATION_TYPE":"U","NORAD_CAT_ID":21233,"ELEMENT_SET_NO":999,"REV_AT_EPOCH":67569,"BSTAR":-0.00043656849,"MEAN_MOTION_DOT":-1.54e-6,"MEAN_MOTION_DDOT":0}]
